OBJECT_NAME,OBJECT_ID,EPOCH,MEAN_MOTION,ECCENTRICITY,INCLINATION,RA_OF_ASC_NODE,ARG_OF_PERICENTER,MEAN_ANOMALY,EPHEMERIS_TYPE,CLASSIFICATION_TYPE,NORAD_CAT_ID,ELEMENT_SET_NO,REV_AT_EPOCH,BSTAR,MEAN_MOTION_DOT,MEAN_MOTION_DDOT
IONOSFERA-M 2,2024-199B,2026-06-11T14:26:54.915936,14.22756448,.00012749,98.7179,35.7437,43.2294,316.8984,0,U,61736,999,13003,.3737546E-4,.4E-6,0
PRSC-EO1,2025-012A,2026-06-11T14:05:56.982912,15.17697754,.00041924,97.4231,235.1565,277.0445,83.0312,0,U,62725,999,7734,.28093848E-3,.5598E-4,0
BIOMASS,2025-090A,2026-06-11T12:15:27.315648,14.67536716,.00013724,98.0741,349.9101,91.0948,269.0414,0,U,63772,999,5985,.17242718E-3,.93E-5,0
GOSAT-GW (IBUKI GW),2025-141A,2026-06-11T14:22:56.879616,14.67554418,.00014207,98.0570,100.0072,83.5466,276.5900,0,U,64694,999,5102,.73004196E-4,.366E-5,0
IONOSFERA-M 3,2025-155A,2026-06-11T14:45:11.762208,14.21485550,.00006832,98.6022,124.6601,167.2886,192.8309,0,U,64876,999,4561,.36940093E-4,.38E-6,0
IONOSFERA-M 4,2025-155B,2026-06-11T15:35:22.845408,14.21487740,.00008446,98.6021,124.6115,118.7633,241.3629,0,U,64877,999,4561,.37306908E-4,.39E-6,0
MICROCARB,2025-156A,2026-06-11T04:03:38.092032,14.72319209,.00150424,97.9831,239.4139,293.2892,66.6731,0,U,64899,999,4708,.70671606E-4,.398E-5,0
CO3D 3,2025-156B,2026-06-11T14:13:28.621632,15.20195164,.00012032,97.4333,241.3659,131.4692,228.6646,0,U,64900,999,4868,.17938298E-3,.3817E-4,0
CO3D 4,2025-156C,2026-06-11T14:13:41.769984,15.20199894,.00006285,97.4332,241.3658,25.6434,334.4832,0,U,64901,999,4868,.1671086E-4,.294E-5,0
CO3D 2,2025-156D,2026-06-11T13:25:40.927872,15.20195999,.00014535,97.4332,241.2324,111.1120,249.0271,0,U,64902,999,4867,.22661928E-3,.4841E-4,0
CO3D 1,2025-156E,2026-06-11T13:25:54.369120,15.20197581,.00012385,97.4331,241.2326,114.0477,246.0888,0,U,64903,999,4867,.24035854E-3,.5139E-4,0
PRSC-S1,2025-164A,2026-06-11T13:29:43.737792,15.06406931,.00073233,41.1313,319.4903,309.7678,50.2491,0,U,65055,999,4758,.33151583E-3,.4799E-4,0
SENTINEL-6B,2025-264A,2026-06-11T07:23:49.580736,12.80929900,.00080377,66.0388,147.3891,269.2334,90.7760,0,U,66514,999,2641,.13148329E-3,-.31E-6,0
CAS500-3,2025-274F,2026-06-11T08:47:10.955328,14.88306670,.00064714,97.7448,90.5497,125.5059,234.6763,0,U,66655,999,2928,.11732947E-3,.1031E-4,0
CSG-3,2026-001A,2026-06-11T12:40:31.531872,14.82149802,.00013383,97.8887,346.2120,93.0416,267.0951,0,U,67304,999,2362,.38256862E-4,.252E-5,0
PRSC-E03,2026-092A,2026-06-11T08:32:33.698976,15.06639057,.00047107,37.9997,124.0651,322.0464,37.9965,0,U,68835,999,707,.14230077E-3,.2041E-4,0
CAS500-2,2026-100AK,2026-06-11T14:59:05.964576,15.20524342,.00111588,97.4088,60.5753,52.0119,308.2123,0,U,69013,999,596,.26222156E-3,.5675E-4,0
