IONOSFERA-M 2           
1 61736U 24199B   26162.60202449  .00000040  00000+0  37375-4 0  9994
2 61736  98.7179  35.7437 0001274  43.2294 316.8984 14.22756448130032
PRSC-EO1                
1 62725U 25012A   26162.58746508  .00005598  00000+0  28094-3 0  9994
2 62725  97.4231 235.1565 0004192 277.0445  83.0312 15.17697754 77342
BIOMASS                 
1 63772U 25090A   26162.51073282  .00000930  00000+0  17243-3 0  9997
2 63772  98.0741 349.9101 0001372  91.0948 269.0414 14.67536716 59856
GOSAT-GW (IBUKI GW)     
1 64694U 25141A   26162.59926944  .00000366  00000+0  73004-4 0  9999
2 64694  98.0570 100.0072 0001420  83.5466 276.5900 14.67554418 51021
IONOSFERA-M 3           
1 64876U 25155A   26162.61471947  .00000038  00000+0  36940-4 0  9991
2 64876  98.6022 124.6601 0000683 167.2886 192.8309 14.21485550 45618
IONOSFERA-M 4           
1 64877U 25155B   26162.64956997  .00000039  00000+0  37307-4 0  9997
2 64877  98.6021 124.6115 0000844 118.7633 241.3629 14.21487740 45616
MICROCARB               
1 64899U 25156A   26162.16919088  .00000398  00000+0  70672-4 0  9999
2 64899  97.9831 239.4139 0015042 293.2892  66.6731 14.72319209 47089
CO3D 3                  
1 64900U 25156B   26162.59269238  .00003817  00000+0  17938-3 0  9998
2 64900  97.4333 241.3659 0001203 131.4692 228.6646 15.20195164 48686
CO3D 4                  
1 64901U 25156C   26162.59284456  .00000294  00000+0  16711-4 0  9993
2 64901  97.4332 241.3658 0000628  25.6434 334.4832 15.20199894 48680
CO3D 2                  
1 64902U 25156D   26162.55950148  .00004841  00000+0  22662-3 0  9991
2 64902  97.4332 241.2324 0001453 111.1120 249.0271 15.20195999 48679
CO3D 1                  
1 64903U 25156E   26162.55965705  .00005139  00000+0  24036-3 0  9995
2 64903  97.4331 241.2326 0001238 114.0477 246.0888 15.20197581 48679
PRSC-S1                 
1 65055U 25164A   26162.56231178  .00004799  00000+0  33152-3 0  9994
2 65055  41.1313 319.4903 0007323 309.7678  50.2491 15.06406931 47580
SENTINEL-6B             
1 66514U 25264A   26162.30821274 -.00000031  00000+0  13148-3 0  9999
2 66514  66.0388 147.3891 0008037 269.2334  90.7760 12.80929900 26417
CAS500-3                
1 66655U 25274F   26162.36609902  .00001031  00000+0  11733-3 0  9992
2 66655  97.7448  90.5497 0006471 125.5059 234.6763 14.88306670 29283
CSG-3                   
1 67304U 26001A   26162.52814273  .00000252  00000+0  38257-4 0  9995
2 67304  97.8887 346.2120 0001338  93.0416 267.0951 14.82149802 23627
PRSC-E03                
1 68835U 26092A   26162.35594559  .00002041  00000+0  14230-3 0  9990
2 68835  37.9997 124.0651 0004710 322.0464  37.9965 15.06639057  7073
CAS500-2                
1 69013U 26100AK  26162.62437459  .00005675  00000+0  26222-3 0  9994
2 69013  97.4088  60.5753 0011158  52.0119 308.2123 15.20524342  5964
